{
  "type": "FeatureCollection",
  "features": [
    {
      "type": "Feature",
      "properties": {
        "norad_id": 32177,
        "name": "FENGYUN 1C DEB",
        "group": "fengyun-1c-debris",
        "lat": 66.16854188271641,
        "lon": -166.10459770128108,
        "alt_km": 679.3820277232808,
        "timestamp": "2025-12-09T16:56:36.860521+00:00",
        "meta_object_name": "FENGYUN 1C DEB",
        "meta_object_id": "1999-025CTX",
        "meta_epoch": "2025-12-08T05:48:11.993472",
        "meta_mean_motion": 14.56132774,
        "meta_eccentricity": 0.00521384,
        "meta_inclination": 99.0451,
        "meta_ra_of_asc_node": 351.1699,
        "meta_arg_of_pericenter": 58.5806,
        "meta_mean_anomaly": 302.0473,
        "meta_ephemeris_type": 0,
        "meta_classification_type": "U",
        "meta_norad_cat_id": 32177,
        "meta_element_set_no": 999,
        "meta_rev_at_epoch": 70973,
        "meta_bstar": 0.0018536957,
        "meta_mean_motion_dot": 8.285e-05,
        "meta_mean_motion_ddot": 0,
        "tle_line1": "1 32177U 99025CTX 25342.24180548  .00008285  00000+0  18537-2 0  9991",
        "tle_line2": "2 32177  99.0451 351.1699 0052138  58.5806 302.0473 14.56132774709730"
      },
      "geometry": {
        "type": "Point",
        "coordinates": [
          -166.10459770128108,
          66.16854188271641
        ]
      }
    },
    {
      "type": "Feature",
      "properties": {
        "norad_id": 32178,
        "name": "FENGYUN 1C DEB",
        "group": "fengyun-1c-debris",
        "lat": -33.290026617914634,
        "lon": -8.513244122001273,
        "alt_km": 753.5397965048705,
        "timestamp": "2025-12-09T16:56:36.860531+00:00",
        "meta_object_name": "FENGYUN 1C DEB",
        "meta_object_id": "1999-025CTY",
        "meta_epoch": "2025-12-07T17:50:56.721120",
        "meta_mean_motion": 14.22943585,
        "meta_eccentricity": 0.00947686,
        "meta_inclination": 100.3035,
        "meta_ra_of_asc_node": 342.3342,
        "meta_arg_of_pericenter": 337.1658,
        "meta_mean_anomaly": 22.5314,
        "meta_ephemeris_type": 0,
        "meta_classification_type": "U",
        "meta_norad_cat_id": 32178,
        "meta_element_set_no": 999,
        "meta_rev_at_epoch": 63932,
        "meta_bstar": 0.0022460255,
        "meta_mean_motion_dot": 5.238e-05,
        "meta_mean_motion_ddot": 0,
        "tle_line1": "1 32178U 99025CTY 25341.74371205  .00005238  00000+0  22460-2 0  9993",
        "tle_line2": "2 32178 100.3035 342.3342 0094768 337.1658  22.5314 14.22943585639326"
      },
      "geometry": {
        "type": "Point",
        "coordinates": [
          -8.513244122001273,
          -33.290026617914634
        ]
      }
    },
    {
      "type": "Feature",
      "properties": {
        "norad_id": 32179,
        "name": "FENGYUN 1C DEB",
        "group": "fengyun-1c-debris",
        "lat": -12.927879342827415,
        "lon": -149.46731047484914,
        "alt_km": 780.6406056865972,
        "timestamp": "2025-12-09T16:56:36.860542+00:00",
        "meta_object_name": "FENGYUN 1C DEB",
        "meta_object_id": "1999-025CTZ",
        "meta_epoch": "2025-12-08T02:31:42.137184",
        "meta_mean_motion": 14.0367669,
        "meta_eccentricity": 0.01450328,
        "meta_inclination": 98.9105,
        "meta_ra_of_asc_node": 31.0275,
        "meta_arg_of_pericenter": 202.778,
        "meta_mean_anomaly": 186.429,
        "meta_ephemeris_type": 0,
        "meta_classification_type": "U",
        "meta_norad_cat_id": 32179,
        "meta_element_set_no": 999,
        "meta_rev_at_epoch": 65663,
        "meta_bstar": 0.00014596717,
        "meta_mean_motion_dot": 2.08e-06,
        "meta_mean_motion_ddot": 0,
        "tle_line1": "1 32179U 99025CTZ 25342.10534881  .00000208  00000+0  14597-3 0  9991",
        "tle_line2": "2 32179  98.9105  31.0275 0145032 202.7780 186.4290 14.03676690656633"
      },
      "geometry": {
        "type": "Point",
        "coordinates": [
          -149.46731047484914,
          -12.927879342827415
        ]
      }
    },
    {
      "type": "Feature",
      "properties": {
        "norad_id": 32180,
        "name": "FENGYUN 1C DEB",
        "group": "fengyun-1c-debris",
        "lat": -11.379440527011077,
        "lon": 25.72641570131304,
        "alt_km": 1023.388283796271,
        "timestamp": "2025-12-09T16:56:36.860552+00:00",
        "meta_object_name": "FENGYUN 1C DEB",
        "meta_object_id": "1999-025CUA",
        "meta_epoch": "2025-12-09T08:37:52.355136",
        "meta_mean_motion": 13.82326423,
        "meta_eccentricity": 0.0136228,
        "meta_inclination": 99.5863,
        "meta_ra_of_asc_node": 23.4251,
        "meta_arg_of_pericenter": 219.3921,
        "meta_mean_anomaly": 205.3295,
        "meta_ephemeris_type": 0,
        "meta_classification_type": "U",
        "meta_norad_cat_id": 32180,
        "meta_element_set_no": 999,
        "meta_rev_at_epoch": 94221,
        "meta_bstar": 0.00017007,
        "meta_mean_motion_dot": 1.5e-06,
        "meta_mean_motion_ddot": 0,
        "tle_line1": "1 32180U 99025CUA 25343.35963374  .00000150  00000+0  17007-3 0  9999",
        "tle_line2": "2 32180  99.5863  23.4251 0136228 219.3921 205.3295 13.82326423942210"
      },
      "geometry": {
        "type": "Point",
        "coordinates": [
          25.72641570131304,
          -11.379440527011077
        ]
      }
    },
    {
      "type": "Feature",
      "properties": {
        "norad_id": 32181,
        "name": "FENGYUN 1C DEB",
        "group": "fengyun-1c-debris",
        "lat": -11.95714864288196,
        "lon": -94.94606621960244,
        "alt_km": 717.1144275219804,
        "timestamp": "2025-12-09T16:56:36.860562+00:00",
        "meta_object_name": "FENGYUN 1C DEB",
        "meta_object_id": "1999-025CUB",
        "meta_epoch": "2025-12-08T12:18:07.178112",
        "meta_mean_motion": 14.55988376,
        "meta_eccentricity": 0.00740032,
        "meta_inclination": 99.4733,
        "meta_ra_of_asc_node": 85.7271,
        "meta_arg_of_pericenter": 97.8594,
        "meta_mean_anomaly": 321.5647,
        "meta_ephemeris_type": 0,
        "meta_classification_type": "U",
        "meta_norad_cat_id": 32181,
        "meta_element_set_no": 999,
        "meta_rev_at_epoch": 96659,
        "meta_bstar": 0.0012615845,
        "meta_mean_motion_dot": 5.703e-05,
        "meta_mean_motion_ddot": 0,
        "tle_line1": "1 32181U 99025CUB 25342.51258308  .00005703  00000+0  12616-2 0  9990",
        "tle_line2": "2 32181  99.4733  85.7271 0074003  97.8594 321.5647 14.55988376966597"
      },
      "geometry": {
        "type": "Point",
        "coordinates": [
          -94.94606621960244,
          -11.95714864288196
        ]
      }
    },
    {
      "type": "Feature",
      "properties": {
        "norad_id": 32183,
        "name": "FENGYUN 1C DEB",
        "group": "fengyun-1c-debris",
        "lat": 33.02460687654854,
        "lon": -139.2755847429462,
        "alt_km": 850.0092091919787,
        "timestamp": "2025-12-09T16:56:36.860573+00:00",
        "meta_object_name": "FENGYUN 1C DEB",
        "meta_object_id": "1999-025CUD",
        "meta_epoch": "2025-12-09T02:37:54.780384",
        "meta_mean_motion": 14.10071301,
        "meta_eccentricity": 0.0042849,
        "meta_inclination": 98.7133,
        "meta_ra_of_asc_node": 34.4259,
        "meta_arg_of_pericenter": 71.0034,
        "meta_mean_anomaly": 289.5773,
        "meta_ephemeris_type": 0,
        "meta_classification_type": "U",
        "meta_norad_cat_id": 32183,
        "meta_element_set_no": 999,
        "meta_rev_at_epoch": 72713,
        "meta_bstar": 0.00087644324,
        "meta_mean_motion_dot": 1.519e-05,
        "meta_mean_motion_ddot": 0,
        "tle_line1": "1 32183U 99025CUD 25343.10966181  .00001519  00000+0  87644-3 0  9998",
        "tle_line2": "2 32183  98.7133  34.4259 0042849  71.0034 289.5773 14.10071301727138"
      },
      "geometry": {
        "type": "Point",
        "coordinates": [
          -139.2755847429462,
          33.02460687654854
        ]
      }
    },
    {
      "type": "Feature",
      "properties": {
        "norad_id": 32184,
        "name": "FENGYUN 1C DEB",
        "group": "fengyun-1c-debris",
        "lat": -35.2866876907651,
        "lon": 128.48688174225416,
        "alt_km": 402.75841020914686,
        "timestamp": "2025-12-09T16:56:36.860583+00:00",
        "meta_object_name": "FENGYUN 1C DEB",
        "meta_object_id": "1999-025CUE",
        "meta_epoch": "2025-12-08T08:24:46.586880",
        "meta_mean_motion": 15.42949413,
        "meta_eccentricity": 0.00717596,
        "meta_inclination": 98.12,
        "meta_ra_of_asc_node": 121.1774,
        "meta_arg_of_pericenter": 3.6696,
        "meta_mean_anomaly": 356.5061,
        "meta_ephemeris_type": 0,
        "meta_classification_type": "U",
        "meta_norad_cat_id": 32184,
        "meta_element_set_no": 999,
        "meta_rev_at_epoch": 98336,
        "meta_bstar": 0.0017020351,
        "meta_mean_motion_dot": 0.00082955,
        "meta_mean_motion_ddot": 0,
        "tle_line1": "1 32184U 99025CUE 25342.35053920  .00082955  00000+0  17020-2 0  9996",
        "tle_line2": "2 32184  98.1200 121.1774 0071759   3.6696 356.5061 15.42949413983369"
      },
      "geometry": {
        "type": "Point",
        "coordinates": [
          128.48688174225416,
          -35.2866876907651
        ]
      }
    }
  ]
}